{
  "norad_id": 61946,
  "name": "STARLINK-11410 [DTC]",
  "history": [
    {
      "epoch": "2026-03-28T21:36:55.269216",
      "apogee_km": 360.2256504381585,
      "perigee_km": 359.00746459495986,
      "latitude_deg": 48.657085197778684,
      "longitude_deg": 101.0614102401305,
      "semi_major_axis_km": 6737.753557516559,
      "eccentricity": 9.04e-05,
      "inclination_deg": 53.1569,
      "raan_deg": 276.6698,
      "arg_perigee_deg": 66.9727,
      "mean_anomaly_deg": 293.1386,
      "mean_motion_rev_day": 15.69748508
    }
  ]
}