{"fetched_at":"2026-03-29T16:36:15Z","count":15609,"tles":[{"name":"STARLINK-11410 [DTC]","line1":"1 61946U 24209H   26087.90063969  .00157265  00000+0  12764-2 0  9995","line2":"2 61946  53.1569 276.6698 0000904  66.9727 293.1386 15.69748508 79732","category":"Starlink"}]}